#dP2023  9  1  0  0  0.00000000      96 __u+U IGS14 FIT  IAC
## 2277 432000.00000000   900.00000000 60188 0.0000000000000
+  119   C06C07C08C09C10C11C12C13C14C16C19C20C21C22C23C24C25
+        C26C27C28C29C30C32C33C34C35C36C37C38C39C40C41C42C43
+        C44C45C46E02E03E04E05E07E08E09E10E11E12E13E14E15E18
+        E19E21E24E25E26E27E30E31E33E34E36G01G02G03G04G05G06
+        G07G08G09G10G11G12G13G14G15G16G17G18G19G20G21G22G23
+        G24G25G26G27G28G29G30G31G32J02J03J04R01R02R03R04R05
+        R07R08R09R11R12R13R14R15R16R17R18R19R20R21R22R24R25
++         7  7  7  7  7  7  6  7  7  7  6  6  6  5  6  6  6
++         6  6  6  6  6  6  6  6  6  6  6  7  6  6  6  6  6
++         6  6  6  4  4  4  4  5  5  4  4  4  4  5  4  4  4
++         4  4  4  4  4  4  5  4  5  4  4  4  4  3  4  4  3
++         4  4  3  4  3  0  4  4  4  4  3  4  3  4  4  4  4
++         4  3  4  4  3  4  3  4  3  9  9 10  8  7  7  7  7
++         7  7  7  7  7  8  7  7  7  7  7  8  8  6  7  7  8
%c M  cc GPS ccc cccc cccc cccc cccc ccccc ccccc ccccc ccccc
%c cc cc ccc ccc cccc cccc cccc cccc ccccc ccccc ccccc ccccc
%f  1.2500000  1.025000000  0.00000000000  0.000000000000000
%f  0.0000000  0.000000000  0.00000000000  0.000000000000000
%i    0    0    0    0      0      0      0      0         0
%i    0    0    0    0      0      0      0      0         0
/* INFORMATION & ANALYSIS CENTER (IAC)            FINAL DATA
/* S/V CLOCKS ARE ALIGNED TO GNSS TIME                      
/* G:C1WC2W R:C1PC2P E:C1XC5X C:C2IC6I J:C1CC2S             
/* PCV:IGS20_2274 OL/AL:FES2004  NONE     YN ORB:CoN CLK:CoN
*  2023 09 01  5 15  0.00000000
PC06 -14372.924972  39645.533012  -3556.117893    942.444548
PC07  -3731.889767  30873.653686 -28297.916487    -18.380188
PC08 -15784.947775  21003.309970  32883.750118    365.512232
PC09 -10254.926562  39493.498061 -11319.676325    221.747327
PC10   3553.481525  33518.395552 -24673.422494   -163.805436
PC11     70.511622  26933.833462   7309.855031    808.988090
PC12 -11173.348855  23114.860619 -10875.149477    920.130122
PC13  -7844.054373  22862.379197  34623.822094    344.242903
PC14   9567.660840  21038.014896  15606.377120    327.155820
PC16 -16877.199961  38820.589892    433.072599    -60.250356
PC19 -17568.663179 -20329.308996  -7562.963675   -970.814416
PC20  -1913.235799 -19048.237263 -20311.886167    318.195272
PC21 -16315.977405   6037.108619  21830.153071   -960.351574
PC22 -23958.221911 -10040.780649  10217.495371   -326.643440
PC23  24005.561905   1411.122846 -14152.343614   -885.941561
PC24 -11456.869236  18313.716925 -17658.370962    345.095560
PC25  10070.519852  13239.398885 -22414.512341    201.652129
PC26 -24398.924665  13078.040535  -3386.748627   -171.348341
PC27  14660.213097 -16338.254358  17209.240563    192.741563
PC28  15753.142950   2537.277644  22898.944423    144.405917
PC29  -7888.455832 -22288.390135 -14833.656904    168.559130
PC30   4958.026500 -27332.896805   2574.728680     -4.268254
PC32  16335.466311  -6093.923609 -21780.010407   -529.866919
PC33  17585.914844  20247.606087   7681.594896   -952.841514
PC34  -4089.133767  27585.466601  -1226.363791    249.704267
PC35 -15897.166145  -2149.834446 -22845.643424    555.889195
PC36  -8886.167588 -13909.382765  22528.751803   -247.902538
PC37  25063.435572 -12038.789230   2546.964405   -818.035760
PC38 -23384.201030  22153.424530  27126.029060    101.892541
PC39 -17815.510000  37811.966489   6500.053842     -4.580547
PC40  -7188.484183  25988.477170 -32312.529622    -34.908301
PC41  24014.490558  10507.422637  -9517.448642   -882.364111
PC42    367.728605  18443.817800  20966.108463   -560.288931
PC43   7383.410376  22917.527321  14109.890150     37.788804
PC44 -14222.314697  16695.885909 -17280.896702    217.718383
PC45 -24217.868764   -991.327297  13815.461605    -20.548021
PC46  10247.185607 -18254.385154  18475.446106    -80.872524
PE02 -18540.521267  10716.446497 -20425.723234     59.342366
PE03  -9234.007387  18472.530962  21194.131988    -51.554376
PE04  -4950.260090 -28380.673031  -6799.693683   -202.146520
PE05 -18106.897835  -2242.421968  23308.513993     14.260725
PE07  16247.273249  21915.295246 -11473.241706    -71.565946
PE08   4698.880967  28305.097618   7246.852640   -139.268856
PE09 -16156.168300 -22043.909192  11384.141444   -140.638172
PE10  -2815.201596 -19019.974048 -22520.194758   -560.401152
PE11 -11915.256080 -10799.938616 -24864.850845   2843.081393
PE12   5807.636290 -23591.966955 -16910.197532   -680.238870
PE13  11298.804473  11371.886986  24882.279315    -19.546090
PE14 -20867.600024  -2624.462723 -23179.298244    327.611304
PE15  -6176.612889  23692.981680  16630.739589    -49.670927
PE18  12911.124083 -12637.034150  18551.028004    479.456767
PE19  10783.724319 -16113.573054 -22362.457349  -1726.894142
PE21  28973.308073   1390.543281   5901.725051   -550.015799
PE24 -22616.944168 -13729.213849  13247.209485   -297.147399
PE25 -29027.487975  -1655.410186  -5538.535742     -1.136927
PE26  22186.897936  -8003.177440  17892.023087    209.448507
PE27  23123.607305  13358.551624 -12766.081507   -138.836759
PE30   3151.263265  17360.422134 -23770.490775   -464.085139
PE31  -3706.030615 -17332.135734  23719.922109     -4.024179
PE33  20072.169475 -21687.223042   1857.830113     -0.971195
PE34 -19751.626559  21998.782468  -1244.203727    -64.640348
PE36 -21914.563541   7417.461086 -18464.643071   -109.532203
PG01  13402.398626 -21607.602966  -7377.520727    166.696085
PG02  16720.668191 -20488.715930   1480.972433   -559.102236
PG03   7127.171193 -13496.627891 -21869.688138   -158.789164
PG04   2252.508860 -23257.432935 -12502.848546    142.777006
PG05 -21617.233239   6319.202137  13975.684006   -141.003174
PG06 -15857.373963  -3105.828842 -21038.711790    557.789071
PG07  -1361.114947 -18812.151310  18981.244392     79.705250
PG08   9206.475601 -15114.328059  19606.339416   -139.994413
PG09  -5754.838864 -25531.475045  -4447.891996    -71.693416
PG10  22335.137130  11207.152003   9643.753804    -51.590475
PG11 -21384.113997   9147.622686 -12765.676800   -347.402207
PG12      0.000000      0.000000      0.000000 999999.999999
PG13 -13862.421389   6253.729879  21563.273598    567.135412
PG14 -19660.936621 -13484.424615  11903.489147    171.456942
PG15  -6883.892971  17058.325695  18597.215885     73.220338
PG16  24569.523497   -102.286834  10337.155549   -460.519353
PG17 -13065.267036 -19972.915109 -11099.500105    723.390124
PG18   2564.393688  17228.683600  19999.365283   -402.289426
PG19 -15203.465902 -13187.714826 -17706.240015    365.421604
PG20 -26160.152685   1702.690589   3607.309867    414.209054
PG21  17582.877755 -18925.207736   4007.118540    149.752471
PG22 -23347.764724 -11212.051469   5637.593656    130.530321
PG23  11803.725920  14913.566523  18616.106743     62.385025
PG24 -14436.966038  21957.820867  -1980.976146   -306.668694
PG25   3671.205736  16075.929166 -21183.243108    465.353669
PG26  26441.863225   4035.742958   -658.891222    230.562685
PG27  15034.403321  -2041.214371  21574.834059    -31.959326
PG28  15114.259129   5028.986231 -21275.648912     -4.119663
PG29   3441.239508  25938.043185  -4274.292407   -608.724277
PG30 -10344.138536 -12063.334854  21390.639587   -491.688339
PG31  20489.693882  -4677.378475 -16668.855781   -222.724605
PG32  15846.329454  15975.573262 -14088.263402   -550.542963
PJ02 -30370.748559  14645.347437 -20681.151739     -3.342976
PJ03 -25081.554511  32049.675389  -6289.871283     -1.927857
PJ04 -25330.155816  26999.642643  26057.338056     70.513184
PR01   4475.707046  17470.546782  18030.586639     64.668880
PR02  15858.591123  19912.511811   2172.041081    -22.478622
PR03  18240.504539  10385.643675 -14499.108150     84.387296
PR04  10296.097240  -4368.991598 -22902.807292    200.999145
PR05  -2992.008944 -16896.311649 -18856.502561    118.273428
PR07 -18020.937693  -9621.635805  15274.594865     63.665744
PR08 -10205.735263   4750.125733  22940.252600    -72.365592
PR09 -12064.362880  -7934.542018  21070.341311    139.816797
PR11 -22981.850802   8446.124862  -7171.252520   -149.220689
PR12  -7558.151175  11955.845948 -21193.304454     30.791912
PR13   9769.576705   8649.950776 -21925.300306    -38.749081
PR14  23874.588208   -690.993935  -8907.667573     25.178125
PR15  22386.214292  -8800.800881   8503.043551     86.559750
PR16   7782.725194 -11897.919898  21184.125628     18.257387
PR17  11120.076671   -184.454858  22967.311784     13.669476
PR18  12864.958102 -16265.587539  14838.277744     99.666662
PR19   9450.375771 -23695.677615    506.230522   -245.577005
PR20  -1814.961104 -17666.912772 -18289.204210    -99.284027
PR21 -11319.950121   1154.789877 -22826.052781    -34.666219
PR22 -13513.556214  16582.266190 -13874.782545    123.059836
PR24   3180.391162  17259.000808  18515.972514    -22.647477
PR25 -11358.782291   -540.223584 -22826.602812     39.887719
EOF
